[{"OBJECT_NAME":"STARLINK-33910","OBJECT_ID":"2025-095AC","EPOCH":"2026-01-27T01:10:54.792192","MEAN_MOTION":15.27634031,"ECCENTRICITY":0.00013504,"INCLINATION":43.004,"RA_OF_ASC_NODE":51.0121,"ARG_OF_PERICENTER":262.9324,"MEAN_ANOMALY":97.1374,"EPHEMERIS_TYPE":0,"CLASSIFICATION_TYPE":"U","NORAD_CAT_ID":63916,"ELEMENT_SET_NO":999,"REV_AT_EPOCH":4141,"BSTAR":0.001869367,"MEAN_MOTION_DOT":0.00051625,"MEAN_MOTION_DDOT":0},{"OBJECT_NAME":"STARLINK-34075","OBJECT_ID":"2025-095AD","EPOCH":"2026-01-26T23:53:25.034496","MEAN_MOTION":15.27593754,"ECCENTRICITY":0.00018032,"INCLINATION":43.0028,"RA_OF_ASC_NODE":51.4691,"ARG_OF_PERICENTER":277.5239,"MEAN_ANOMALY":82.5408,"EPHEMERIS_TYPE":0,"CLASSIFICATION_TYPE":"U","NORAD_CAT_ID":63917,"ELEMENT_SET_NO":999,"REV_AT_EPOCH":4140,"BSTAR":0.0013758581,"MEAN_MOTION_DOT":0.00037809,"MEAN_MOTION_DDOT":0},{"OBJECT_NAME":"STARLINK-34012","OBJECT_ID":"2025-098A","EPOCH":"2026-01-26T22:13:40.581696","MEAN_MOTION":14.9834565,"ECCENTRICITY":0.00033559,"INCLINATION":70.0029,"RA_OF_ASC_NODE":19.8819,"ARG_OF_PERICENTER":265.1215,"MEAN_ANOMALY":94.9561,"EPHEMERIS_TYPE":0,"CLASSIFICATION_TYPE":"U","NORAD_CAT_ID":63926,"ELEMENT_SET_NO":999,"REV_AT_EPOCH":4033,"BSTAR":0.00054038375,"MEAN_MOTION_DOT":6.363e-5,"MEAN_MOTION_DDOT":0},{"OBJECT_NAME":"STARLINK-33956","OBJECT_ID":"2025-098B","EPOCH":"2026-01-27T06:44:34.748736","MEAN_MOTION":14.98238231,"ECCENTRICITY":0.00022059,"INCLINATION":70.0056,"RA_OF_ASC_NODE":18.6994,"ARG_OF_PERICENTER":247.3504,"MEAN_ANOMALY":112.7421,"EPHEMERIS_TYPE":0,"CLASSIFICATION_TYPE":"U","NORAD_CAT_ID":63927,"ELEMENT_SET_NO":999,"REV_AT_EPOCH":4037,"BSTAR":0.0059321109,"MEAN_MOTION_DOT":0.00071241,"MEAN_MOTION_DDOT":0},{"OBJECT_NAME":"STARLINK-33997","OBJECT_ID":"2025-098C","EPOCH":"2026-01-27T06:32:23.000352","MEAN_MOTION":14.98349497,"ECCENTRICITY":0.00023245,"INCLINATION":70.0065,"RA_OF_ASC_NODE":19.0781,"ARG_OF_PERICENTER":286.4204,"MEAN_ANOMALY":73.6699,"EPHEMERIS_TYPE":0,"CLASSIFICATION_TYPE":"U","NORAD_CAT_ID":63928,"ELEMENT_SET_NO":999,"REV_AT_EPOCH":4036,"BSTAR":0.00075572481,"MEAN_MOTION_DOT":8.94e-5,"MEAN_MOTION_DDOT":0},{"OBJECT_NAME":"STARLINK-33989","OBJECT_ID":"2025-098D","EPOCH":"2026-01-27T06:00:00.999648","MEAN_MOTION":14.98327434,"ECCENTRICITY":0.00031358,"INCLINATION":70.0024,"RA_OF_ASC_NODE":18.9907,"ARG_OF_PERICENTER":271.5074,"MEAN_ANOMALY":101.522,"EPHEMERIS_TYPE":0,"CLASSIFICATION_TYPE":"U","NORAD_CAT_ID":63929,"ELEMENT_SET_NO":999,"REV_AT_EPOCH":552,"BSTAR":0.00042618228,"MEAN_MOTION_DOT":4.995e-5,"MEAN_MOTION_DDOT":0},{"OBJECT_NAME":"STARLINK-33980","OBJECT_ID":"2025-098E","EPOCH":"2026-01-27T06:26:22.277760","MEAN_MOTION":14.9834303,"ECCENTRICITY":0.00032322,"INCLINATION":70.0017,"RA_OF_ASC_NODE":19.0675,"ARG_OF_PERICENTER":272.3463,"MEAN_ANOMALY":87.7326,"EPHEMERIS_TYPE":0,"CLASSIFICATION_TYPE":"U","NORAD_CAT_ID":63930,"ELEMENT_SET_NO":999,"REV_AT_EPOCH":4036,"BSTAR":0.00017170129,"MEAN_MOTION_DOT":1.957e-5,"MEAN_MOTION_DDOT":0},{"OBJECT_NAME":"STARLINK-33994","OBJECT_ID":"2025-098F","EPOCH":"2026-01-27T07:26:08.975904","MEAN_MOTION":14.99996775,"ECCENTRICITY":0.00075134,"INCLINATION":70.0045,"RA_OF_ASC_NODE":18.8135,"ARG_OF_PERICENTER":308.9564,"MEAN_ANOMALY":51.0926,"EPHEMERIS_TYPE":0,"CLASSIFICATION_TYPE":"U","NORAD_CAT_ID":63931,"ELEMENT_SET_NO":999,"REV_AT_EPOCH":4037,"BSTAR":0.08079336,"MEAN_MOTION_DOT":0.01092516,"MEAN_MOTION_DDOT":0},{"OBJECT_NAME":"STARLINK-33971","OBJECT_ID":"2025-098G","EPOCH":"2026-01-27T06:20:36.070368","MEAN_MOTION":14.98344643,"ECCENTRICITY":0.00028564,"INCLINATION":70.0024,"RA_OF_ASC_NODE":19.0542,"ARG_OF_PERICENTER":271.0631,"MEAN_ANOMALY":89.0201,"EPHEMERIS_TYPE":0,"CLASSIFICATION_TYPE":"U","NORAD_CAT_ID":63932,"ELEMENT_SET_NO":999,"REV_AT_EPOCH":4036,"BSTAR":0.00054566014,"MEAN_MOTION_DOT":6.426e-5,"MEAN_MOTION_DDOT":0},{"OBJECT_NAME":"STARLINK-33877","OBJECT_ID":"2025-098H","EPOCH":"2026-01-27T06:50:12.139008","MEAN_MOTION":14.996196,"ECCENTRICITY":0.00059732,"INCLINATION":70.0025,"RA_OF_ASC_NODE":18.7127,"ARG_OF_PERICENTER":274.6736,"MEAN_ANOMALY":85.3742,"EPHEMERIS_TYPE":0,"CLASSIFICATION_TYPE":"U","NORAD_CAT_ID":63933,"ELEMENT_SET_NO":999,"REV_AT_EPOCH":4037,"BSTAR":0.067767358,"MEAN_MOTION_DOT":0.00893928,"MEAN_MOTION_DDOT":0},{"OBJECT_NAME":"STARLINK-33895","OBJECT_ID":"2025-098J","EPOCH":"2026-01-27T07:02:58.113888","MEAN_MOTION":14.9658099,"ECCENTRICITY":0.00138562,"INCLINATION":70.0102,"RA_OF_ASC_NODE":18.77,"ARG_OF_PERICENTER":158.4903,"MEAN_ANOMALY":201.6841,"EPHEMERIS_TYPE":0,"CLASSIFICATION_TYPE":"U","NORAD_CAT_ID":63934,"ELEMENT_SET_NO":999,"REV_AT_EPOCH":4037,"BSTAR":-0.10315461,"MEAN_MOTION_DOT":-0.01088954,"MEAN_MOTION_DDOT":0},{"OBJECT_NAME":"STARLINK-34005","OBJECT_ID":"2025-098K","EPOCH":"2026-01-27T06:26:36.614112","MEAN_MOTION":14.98348009,"ECCENTRICITY":0.00026241,"INCLINATION":70.0043,"RA_OF_ASC_NODE":19.0627,"ARG_OF_PERICENTER":260.0722,"MEAN_ANOMALY":100.0141,"EPHEMERIS_TYPE":0,"CLASSIFICATION_TYPE":"U","NORAD_CAT_ID":63935,"ELEMENT_SET_NO":999,"REV_AT_EPOCH":4035,"BSTAR":0.00094347015,"MEAN_MOTION_DOT":0.00011187,"MEAN_MOTION_DDOT":0},{"OBJECT_NAME":"STARLINK-34027","OBJECT_ID":"2025-098L","EPOCH":"2026-01-27T06:38:35.437056","MEAN_MOTION":14.98340999,"ECCENTRICITY":0.00028406,"INCLINATION":70.0028,"RA_OF_ASC_NODE":18.6881,"ARG_OF_PERICENTER":272.9077,"MEAN_ANOMALY":87.1757,"EPHEMERIS_TYPE":0,"CLASSIFICATION_TYPE":"U","NORAD_CAT_ID":63936,"ELEMENT_SET_NO":999,"REV_AT_EPOCH":4035,"BSTAR":0.00039100531,"MEAN_MOTION_DOT":4.577e-5,"MEAN_MOTION_DDOT":0},{"OBJECT_NAME":"STARLINK-34035","OBJECT_ID":"2025-098M","EPOCH":"2026-01-27T07:20:40.054560","MEAN_MOTION":14.98344262,"ECCENTRICITY":0.00031465,"INCLINATION":70.0024,"RA_OF_ASC_NODE":18.7987,"ARG_OF_PERICENTER":269.8719,"MEAN_ANOMALY":90.2079,"EPHEMERIS_TYPE":0,"CLASSIFICATION_TYPE":"U","NORAD_CAT_ID":63937,"ELEMENT_SET_NO":999,"REV_AT_EPOCH":4035,"BSTAR":0.00075661899,"MEAN_MOTION_DOT":8.95e-5,"MEAN_MOTION_DDOT":0},{"OBJECT_NAME":"STARLINK-33988","OBJECT_ID":"2025-098N","EPOCH":"2026-01-27T06:02:15.472608","MEAN_MOTION":14.98933945,"ECCENTRICITY":0.00068204,"INCLINATION":70.0031,"RA_OF_ASC_NODE":19.0107,"ARG_OF_PERICENTER":212.1352,"MEAN_ANOMALY":147.9393,"EPHEMERIS_TYPE":0,"CLASSIFICATION_TYPE":"U","NORAD_CAT_ID":63938,"ELEMENT_SET_NO":999,"REV_AT_EPOCH":4034,"BSTAR":0.034879358,"MEAN_MOTION_DOT":0.00446358,"MEAN_MOTION_DDOT":0},{"OBJECT_NAME":"STARLINK-34020","OBJECT_ID":"2025-098P","EPOCH":"2026-01-27T03:44:21.421536","MEAN_MOTION":14.98339946,"ECCENTRICITY":0.0002347,"INCLINATION":70.0046,"RA_OF_ASC_NODE":19.0725,"ARG_OF_PERICENTER":277.7906,"MEAN_ANOMALY":82.2986,"EPHEMERIS_TYPE":0,"CLASSIFICATION_TYPE":"U","NORAD_CAT_ID":63939,"ELEMENT_SET_NO":999,"REV_AT_EPOCH":4033,"BSTAR":0.00053636701,"MEAN_MOTION_DOT":6.314e-5,"MEAN_MOTION_DDOT":0}]
