STARLINK-33910          
1 63916U 25095AC  26027.04924528  .00051625  00000+0  18694-2 0  9995
2 63916  43.0040  51.0121 0001350 262.9324  97.1374 15.27634031 41418
STARLINK-34075          
1 63917U 25095AD  26026.99542864  .00037809  00000+0  13759-2 0  9993
2 63917  43.0028  51.4691 0001803 277.5239  82.5408 15.27593754 41402
STARLINK-34012          
1 63926U 25098A   26026.92616414  .00006363  00000+0  54038-3 0  9999
2 63926  70.0029  19.8819 0003355 265.1215  94.9561 14.98345650 40339
STARLINK-33956          
1 63927U 25098B   26027.28095774  .00071241  00000+0  59321-2 0  9996
2 63927  70.0056  18.6994 0002205 247.3504 112.7421 14.98238231 40371
STARLINK-33997          
1 63928U 25098C   26027.27248843  .00008940  00000+0  75572-3 0  9996
2 63928  70.0065  19.0781 0002324 286.4204  73.6699 14.98349497 40362
STARLINK-33989          
1 63929U 25098D   26027.25001157  .00004995  00000+0  42618-3 0  9991
2 63929  70.0024  18.9907 0003135 271.5074 101.5220 14.98327434  5524
STARLINK-33980          
1 63930U 25098E   26027.26831340  .00001957  00000+0  17170-3 0  9999
2 63930  70.0017  19.0675 0003232 272.3463  87.7326 14.98343030 40364
STARLINK-33994          
1 63931U 25098F   26027.30982611  .01092516  00000+0  80793-1 0  9994
2 63931  70.0045  18.8135 0007513 308.9564  51.0926 14.99996775 40370
STARLINK-33971          
1 63932U 25098G   26027.26430637  .00006426  00000+0  54566-3 0  9991
2 63932  70.0024  19.0542 0002856 271.0631  89.0201 14.98344643 40369
STARLINK-33877          
1 63933U 25098H   26027.28486272  .00893928  00000+0  67767-1 0  9996
2 63933  70.0025  18.7127 0005973 274.6736  85.3742 14.99619600 40373
STARLINK-33895          
1 63934U 25098J   26027.29372817 -.01088954  00000+0 -10315+0 0  9990
2 63934  70.0102  18.7700 0013856 158.4903 201.6841 14.96580990 40370
STARLINK-34005          
1 63935U 25098K   26027.26847933  .00011187  00000+0  94347-3 0  9996
2 63935  70.0043  19.0627 0002624 260.0722 100.0141 14.98348009 40355
STARLINK-34027          
1 63936U 25098L   26027.27679904  .00004577  00000+0  39101-3 0  9991
2 63936  70.0028  18.6881 0002840 272.9077  87.1757 14.98340999 40359
STARLINK-34035          
1 63937U 25098M   26027.30601915  .00008950  00000+0  75662-3 0  9994
2 63937  70.0024  18.7987 0003146 269.8719  90.2079 14.98344262 40351
STARLINK-33988          
1 63938U 25098N   26027.25156797  .00446358  00000+0  34879-1 0  9993
2 63938  70.0031  19.0107 0006820 212.1352 147.9393 14.98933945 40344
STARLINK-34020          
1 63939U 25098P   26027.15580349  .00006314  00000+0  53637-3 0  9996
2 63939  70.0046  19.0725 0002347 277.7906  82.2986 14.98339946 40338
